{
  "norad_id": 68955,
  "name": "STARLINK-36794",
  "history": [
    {
      "epoch": "2026-05-12T20:00:01.999008Z",
      "apogee_km": 328.70189157358345,
      "perigee_km": 327.1796119239352,
      "latitude_deg": -16.379235581880625,
      "longitude_deg": 148.46602555308962,
      "height_km": 332.5164028347384,
      "semi_major_axis_km": 6706.077751748759,
      "eccentricity": 0.0001135,
      "inclination_deg": 53.1596,
      "raan_deg": 331.7248,
      "arg_perigee_deg": 79.3636,
      "mean_anomaly_deg": 260.2372,
      "mean_motion_rev_day": 15.80883568
    }
  ]
}