STARLINK-36794          
1 68955U 26099E   26132.83335648 -.00013312  00000+0 -63975-4 0  9998
2 68955  53.1596 331.7248 0001134  79.3636 260.2372 15.80883568  3035
